CCSDS_OMM_VERS = 2.0
CREATION_DATE  = 
ORIGINATOR     = 

OBJECT_NAME    = STARLINK-34783
OBJECT_ID      = 2025-253U
CENTER_NAME    = EARTH
REF_FRAME      = TEME
TIME_SYSTEM    = UTC
MEAN_ELEMENT_THEORY = SGP/SGP4

EPOCH          = 2025-12-02T04:00:03.998880
MEAN_MOTION    = 15.40666059
ECCENTRICITY   = .0001784
INCLINATION    = 43.0006
RA_OF_ASC_NODE = 46.6779
ARG_OF_PERICENTER = 268.3758
MEAN_ANOMALY   = 328.7093

EPHEMERIS_TYPE = 0
CLASSIFICATION_TYPE = U
NORAD_CAT_ID   = 66337
ELEMENT_SET_NO = 999
REV_AT_EPOCH   = 527
BSTAR          = .27737E-2
MEAN_MOTION_DOT = .117227E-2
MEAN_MOTION_DDOT = 0

CCSDS_OMM_VERS = 2.0
CREATION_DATE  = 
ORIGINATOR     = 

OBJECT_NAME    = STARLINK-35477
OBJECT_ID      = 2025-253V
CENTER_NAME    = EARTH
REF_FRAME      = TEME
TIME_SYSTEM    = UTC
MEAN_ELEMENT_THEORY = SGP/SGP4

EPOCH          = 2025-12-02T04:00:03.998880
MEAN_MOTION    = 15.40622816
ECCENTRICITY   = .0000743
INCLINATION    = 43.0005
RA_OF_ASC_NODE = 46.7692
ARG_OF_PERICENTER = 220.4812
MEAN_ANOMALY   = 339.3866

EPHEMERIS_TYPE = 0
CLASSIFICATION_TYPE = U
NORAD_CAT_ID   = 66338
ELEMENT_SET_NO = 999
REV_AT_EPOCH   = 532
BSTAR          = .28153E-2
MEAN_MOTION_DOT = .118843E-2
MEAN_MOTION_DDOT = 0

CCSDS_OMM_VERS = 2.0
CREATION_DATE  = 
ORIGINATOR     = 

OBJECT_NAME    = STARLINK-35443
OBJECT_ID      = 2025-253W
CENTER_NAME    = EARTH
REF_FRAME      = TEME
TIME_SYSTEM    = UTC
MEAN_ELEMENT_THEORY = SGP/SGP4

EPOCH          = 2025-12-02T02:36:26.779392
MEAN_MOTION    = 15.49923699
ECCENTRICITY   = .0006693
INCLINATION    = 42.9994
RA_OF_ASC_NODE = 46.8033
ARG_OF_PERICENTER = 216.1354
MEAN_ANOMALY   = 143.9055

EPHEMERIS_TYPE = 0
CLASSIFICATION_TYPE = U
NORAD_CAT_ID   = 66339
ELEMENT_SET_NO = 999
REV_AT_EPOCH   = 528
BSTAR          = .1676E-2
MEAN_MOTION_DOT = .96991E-3
MEAN_MOTION_DDOT = 0

CCSDS_OMM_VERS = 2.0
CREATION_DATE  = 
ORIGINATOR     = 

OBJECT_NAME    = STARLINK-35218
OBJECT_ID      = 2025-253X
CENTER_NAME    = EARTH
REF_FRAME      = TEME
TIME_SYSTEM    = UTC
MEAN_ELEMENT_THEORY = SGP/SGP4

EPOCH          = 2025-12-01T14:17:03.181344
MEAN_MOTION    = 15.50618519
ECCENTRICITY   = .00019254
INCLINATION    = 43.0003
RA_OF_ASC_NODE = 49.8326
ARG_OF_PERICENTER = 277.9087
MEAN_ANOMALY   = 82.1554

EPHEMERIS_TYPE = 0
CLASSIFICATION_TYPE = U
NORAD_CAT_ID   = 66340
ELEMENT_SET_NO = 999
REV_AT_EPOCH   = 520
BSTAR          = .17664501E-2
MEAN_MOTION_DOT = .104835E-2
MEAN_MOTION_DDOT = 0

CCSDS_OMM_VERS = 2.0
CREATION_DATE  = 
ORIGINATOR     = 

OBJECT_NAME    = STARLINK-35522
OBJECT_ID      = 2025-253Y
CENTER_NAME    = EARTH
REF_FRAME      = TEME
TIME_SYSTEM    = UTC
MEAN_ELEMENT_THEORY = SGP/SGP4

EPOCH          = 2025-12-01T12:46:16.189248
MEAN_MOTION    = 15.50630105
ECCENTRICITY   = .0001633
INCLINATION    = 43.0004
RA_OF_ASC_NODE = 50.2222
ARG_OF_PERICENTER = 288.4930
MEAN_ANOMALY   = 71.5752

EPHEMERIS_TYPE = 0
CLASSIFICATION_TYPE = U
NORAD_CAT_ID   = 66341
ELEMENT_SET_NO = 999
REV_AT_EPOCH   = 519
BSTAR          = .11951204E-2
MEAN_MOTION_DOT = .70534E-3
MEAN_MOTION_DDOT = 0

CCSDS_OMM_VERS = 2.0
CREATION_DATE  = 
ORIGINATOR     = 

OBJECT_NAME    = STARLINK-35535
OBJECT_ID      = 2025-253Z
CENTER_NAME    = EARTH
REF_FRAME      = TEME
TIME_SYSTEM    = UTC
MEAN_ELEMENT_THEORY = SGP/SGP4

EPOCH          = 2025-12-02T04:00:03.998880
MEAN_MOTION    = 15.42822212
ECCENTRICITY   = .0001275
INCLINATION    = 43.0008
RA_OF_ASC_NODE = 46.5296
ARG_OF_PERICENTER = 249.7778
MEAN_ANOMALY   = 48.1751

EPHEMERIS_TYPE = 0
CLASSIFICATION_TYPE = U
NORAD_CAT_ID   = 66342
ELEMENT_SET_NO = 999
REV_AT_EPOCH   = 523
BSTAR          = -.64352E-1
MEAN_MOTION_DOT = -.2545755E-1
MEAN_MOTION_DDOT = 0

CCSDS_OMM_VERS = 2.0
CREATION_DATE  = 
ORIGINATOR     = 

OBJECT_NAME    = STARLINK-35467
OBJECT_ID      = 2025-253AA
CENTER_NAME    = EARTH
REF_FRAME      = TEME
TIME_SYSTEM    = UTC
MEAN_ELEMENT_THEORY = SGP/SGP4

EPOCH          = 2025-12-02T04:00:03.998880
MEAN_MOTION    = 15.40634524
ECCENTRICITY   = .0001461
INCLINATION    = 43.0008
RA_OF_ASC_NODE = 46.6157
ARG_OF_PERICENTER = 269.2132
MEAN_ANOMALY   = 352.8482

EPHEMERIS_TYPE = 0
CLASSIFICATION_TYPE = U
NORAD_CAT_ID   = 66343
ELEMENT_SET_NO = 999
REV_AT_EPOCH   = 523
BSTAR          = .18396E-2
MEAN_MOTION_DOT = .77155E-3
MEAN_MOTION_DDOT = 0

CCSDS_OMM_VERS = 2.0
CREATION_DATE  = 
ORIGINATOR     = 

OBJECT_NAME    = STARLINK-35511
OBJECT_ID      = 2025-253AB
CENTER_NAME    = EARTH
REF_FRAME      = TEME
TIME_SYSTEM    = UTC
MEAN_ELEMENT_THEORY = SGP/SGP4

EPOCH          = 2025-12-01T14:12:36.561312
MEAN_MOTION    = 15.50616705
ECCENTRICITY   = .00018213
INCLINATION    = 43.0007
RA_OF_ASC_NODE = 49.8062
ARG_OF_PERICENTER = 276.3676
MEAN_ANOMALY   = 83.6977

EPHEMERIS_TYPE = 0
CLASSIFICATION_TYPE = U
NORAD_CAT_ID   = 66344
ELEMENT_SET_NO = 999
REV_AT_EPOCH   = 520
BSTAR          = .19436811E-2
MEAN_MOTION_DOT = .115539E-2
MEAN_MOTION_DDOT = 0

CCSDS_OMM_VERS = 2.0
CREATION_DATE  = 
ORIGINATOR     = 

OBJECT_NAME    = STARLINK-35440
OBJECT_ID      = 2025-253AC
CENTER_NAME    = EARTH
REF_FRAME      = TEME
TIME_SYSTEM    = UTC
MEAN_ELEMENT_THEORY = SGP/SGP4

EPOCH          = 2025-12-01T14:13:35.829120
MEAN_MOTION    = 15.50608418
ECCENTRICITY   = .0001817
INCLINATION    = 43.0007
RA_OF_ASC_NODE = 49.8098
ARG_OF_PERICENTER = 280.4353
MEAN_ANOMALY   = 79.6303

EPHEMERIS_TYPE = 0
CLASSIFICATION_TYPE = U
NORAD_CAT_ID   = 66345
ELEMENT_SET_NO = 999
REV_AT_EPOCH   = 520
BSTAR          = .17916955E-2
MEAN_MOTION_DOT = .10632E-2
MEAN_MOTION_DDOT = 0

CCSDS_OMM_VERS = 2.0
CREATION_DATE  = 
ORIGINATOR     = 

OBJECT_NAME    = STARLINK-35482
OBJECT_ID      = 2025-253AD
CENTER_NAME    = EARTH
REF_FRAME      = TEME
TIME_SYSTEM    = UTC
MEAN_ELEMENT_THEORY = SGP/SGP4

EPOCH          = 2025-12-01T14:13:05.225376
MEAN_MOTION    = 15.50646624
ECCENTRICITY   = .00050181
INCLINATION    = 43.0000
RA_OF_ASC_NODE = 49.8084
ARG_OF_PERICENTER = 260.8558
MEAN_ANOMALY   = 99.1735

EPHEMERIS_TYPE = 0
CLASSIFICATION_TYPE = U
NORAD_CAT_ID   = 66346
ELEMENT_SET_NO = 999
REV_AT_EPOCH   = 520
BSTAR          = .20503581E-2
MEAN_MOTION_DOT = .122174E-2
MEAN_MOTION_DDOT = 0

CCSDS_OMM_VERS = 2.0
CREATION_DATE  = 
ORIGINATOR     = 

OBJECT_NAME    = STARLINK-35438
OBJECT_ID      = 2025-253AE
CENTER_NAME    = EARTH
REF_FRAME      = TEME
TIME_SYSTEM    = UTC
MEAN_ELEMENT_THEORY = SGP/SGP4

EPOCH          = 2025-12-01T04:55:34.258368
MEAN_MOTION    = 15.50619700
ECCENTRICITY   = .0000785
INCLINATION    = 42.9997
RA_OF_ASC_NODE = 52.0629
ARG_OF_PERICENTER = 269.9026
MEAN_ANOMALY   = 90.1745

EPHEMERIS_TYPE = 0
CLASSIFICATION_TYPE = U
NORAD_CAT_ID   = 66347
ELEMENT_SET_NO = 999
REV_AT_EPOCH   = 514
BSTAR          = .16452E-2
MEAN_MOTION_DOT = .97525E-3
MEAN_MOTION_DDOT = 0

CCSDS_OMM_VERS = 2.0
CREATION_DATE  = 
ORIGINATOR     = 

OBJECT_NAME    = STARLINK-35849
OBJECT_ID      = 2025-254A
CENTER_NAME    = EARTH
REF_FRAME      = TEME
TIME_SYSTEM    = UTC
MEAN_ELEMENT_THEORY = SGP/SGP4

EPOCH          = 2025-12-02T04:00:03.998880
MEAN_MOTION    = 15.68913644
ECCENTRICITY   = .0001208
INCLINATION    = 53.1591
RA_OF_ASC_NODE = 327.4730
ARG_OF_PERICENTER = 79.3106
MEAN_ANOMALY   = 6.8549

EPHEMERIS_TYPE = 0
CLASSIFICATION_TYPE = U
NORAD_CAT_ID   = 66348
ELEMENT_SET_NO = 999
REV_AT_EPOCH   = 522
BSTAR          = -.19594E-1
MEAN_MOTION_DOT = -.2021918E-1
MEAN_MOTION_DDOT = 0

