STARLINK-34783          
1 66337U 25253U   25336.16671295  .00117227  00000+0  27737-2 0  9995
2 66337  43.0006  46.6779 0001784 268.3758 328.7093 15.40666059  5276
STARLINK-35477          
1 66338U 25253V   25336.16671295  .00118843  00000+0  28153-2 0  9994
2 66338  43.0005  46.7692 0000743 220.4812 339.3866 15.40622816  5320
STARLINK-35443          
1 66339U 25253W   25336.10864328  .00096991  00000+0  16760-2 0  9990
2 66339  42.9994  46.8033 0006693 216.1354 143.9055 15.49923699  5285
STARLINK-35218          
1 66340U 25253X   25335.59517571  .00104835  00000+0  17665-2 0  9991
2 66340  43.0003  49.8326 0001925 277.9087  82.1554 15.50618519  5203
STARLINK-35522          
1 66341U 25253Y   25335.53213182  .00070534  00000+0  11951-2 0  9997
2 66341  43.0004  50.2222 0001633 288.4930  71.5752 15.50630105  5191
STARLINK-35535          
1 66342U 25253Z   25336.16671295 -.02545755  00000+0 -64352-1 0  9999
2 66342  43.0008  46.5296 0001275 249.7778  48.1751 15.42822212  5234
STARLINK-35467          
1 66343U 25253AA  25336.16671295  .00077155  00000+0  18396-2 0  9998
2 66343  43.0008  46.6157 0001461 269.2132 352.8482 15.40634524  5231
STARLINK-35511          
1 66344U 25253AB  25335.59208983  .00115539  00000+0  19437-2 0  9991
2 66344  43.0007  49.8062 0001821 276.3676  83.6977 15.50616705  5200
STARLINK-35440          
1 66345U 25253AC  25335.59277580  .00106320  00000+0  17917-2 0  9990
2 66345  43.0007  49.8098 0001817 280.4353  79.6303 15.50608418  5203
STARLINK-35482          
1 66346U 25253AD  25335.59242159  .00122174  00000+0  20504-2 0  9996
2 66346  43.0000  49.8084 0005018 260.8558  99.1735 15.50646624  5205
STARLINK-35438          
1 66347U 25253AE  25335.20525762  .00097525  00000+0  16452-2 0  9997
2 66347  42.9997  52.0629 0000785 269.9026  90.1745 15.50619700  5146
STARLINK-35849          
1 66348U 25254A   25336.16671295 -.02021918  00000+0 -19594-1 0  9994
2 66348  53.1591 327.4730 0001208  79.3106   6.8549 15.68913644  5224
